start=new Date('2021-12-06T00:00:00.000Z').valueOf();
sats=[{"CLASSIFICATION_TYPE":"U","ARG_OF_PERICENTER":"86.7430","BSTAR":"0.00007101100000","PERIAPSIS":"545.962","APOAPSIS":"548.520","OBJECT_NAME":"STARLINK-1657","SEMIMAJOR_AXIS":"6925.376","TIME_SYSTEM":"UTC","TLE_LINE1":"1 46354U 20062AF  21339.75921708  .00000776  00000-0  71011-4 0  9993","FILE":"3233515","RA_OF_ASC_NODE":"156.9662","MEAN_MOTION_DDOT":"0.0000000000000","EPHEMERIS_TYPE":"0","OBJECT_TYPE":"PAYLOAD","OBJECT_ID":"2020-062AF","TLE_LINE2":"2 46354  53.0533 156.9662 0001847  86.7430 273.3771 15.06391056 69940","INCLINATION":"53.0533","PERIOD":"95.593","RCS_SIZE":"LARGE","EPOCH":"2021-12-05T18:13:16.355712","REF_FRAME":"TEME","MEAN_ELEMENT_THEORY":"SGP4","SITE":"AFETR","CENTER_NAME":"EARTH","DECAY_DATE":null,"COUNTRY_CODE":"US","ECCENTRICITY":"0.00018470","MEAN_ANOMALY":"273.3771","MEAN_MOTION":"15.06391056","LAUNCH_DATE":"2020-09-03","ELEMENT_SET_NO":"999","MEAN_MOTION_DOT":"0.00000776","REV_AT_EPOCH":"6994","GP_ID":"191169899","NORAD_CAT_ID":"46354"},{"REF_FRAME":"TEME","MEAN_ELEMENT_THEORY":"SGP4","SITE":"AFETR","EPOCH":"2021-12-05T20:47:11.050368","ECCENTRICITY":"0.00022490","COUNTRY_CODE":"US","CENTER_NAME":"EARTH","DECAY_DATE":null,"LAUNCH_DATE":"2020-09-03","ELEMENT_SET_NO":"999","MEAN_MOTION_DOT":"-0.00000394","MEAN_ANOMALY":"269.2909","MEAN_MOTION":"15.06394729","NORAD_CAT_ID":"46355","REV_AT_EPOCH":"6996","GP_ID":"191171151","OBJECT_NAME":"STARLINK-1661","ARG_OF_PERICENTER":"90.8338","CLASSIFICATION_TYPE":"U","BSTAR":"-0.00000754800000","APOAPSIS":"548.787","PERIAPSIS":"545.672","TIME_SYSTEM":"UTC","TLE_LINE1":"1 46355U 20062AG  21339.86610012 -.00000394  00000-0 -75480-5 0  9992","SEMIMAJOR_AXIS":"6925.365","EPHEMERIS_TYPE":"0","OBJECT_TYPE":"PAYLOAD","FILE":"3233515","RA_OF_ASC_NODE":"156.4921","MEAN_MOTION_DDOT":"0.0000000000000","RCS_SIZE":"LARGE","TLE_LINE2":"2 46355  53.0551 156.4921 0002249  90.8338 269.2909 15.06394729 69963","OBJECT_ID":"2020-062AG","INCLINATION":"53.0551","PERIOD":"95.592"},{"ELEMENT_SET_NO":"999","MEAN_MOTION_DOT":"-0.00001046","LAUNCH_DATE":"2020-09-03","MEAN_ANOMALY":"270.4867","MEAN_MOTION":"15.06388751","NORAD_CAT_ID":"46356","GP_ID":"191170901","REV_AT_EPOCH":"6995","SITE":"AFETR","MEAN_ELEMENT_THEORY":"SGP4","REF_FRAME":"TEME","EPOCH":"2021-12-05T19:27:34.873920","COUNTRY_CODE":"US","ECCENTRICITY":"0.00020740","CENTER_NAME":"EARTH","DECAY_DATE":null,"OBJECT_TYPE":"PAYLOAD","EPHEMERIS_TYPE":"0","FILE":"3233515","MEAN_MOTION_DDOT":"0.0000000000000","RA_OF_ASC_NODE":"156.7478","RCS_SIZE":"LARGE","PERIOD":"95.593","TLE_LINE2":"2 46356  53.0524 156.7478 0002074  89.6359 270.4867 15.06388751 69953","OBJECT_ID":"2020-062AH","INCLINATION":"53.0524","OBJECT_NAME":"STARLINK-1665","BSTAR":"-0.00005135200000","PERIAPSIS":"545.812","APOAPSIS":"548.684","CLASSIFICATION_TYPE":"U","ARG_OF_PERICENTER":"89.6359","TIME_SYSTEM":"UTC","TLE_LINE1":"1 46356U 20062AH  21339.81082030 -.00001046  00000-0 -51352-4 0  9997","SEMIMAJOR_AXIS":"6925.383"},{"REF_FRAME":"TEME","MEAN_ELEMENT_THEORY":"SGP4","SITE":"AFETR","EPOCH":"2021-12-05T21:00:28.131840","COUNTRY_CODE":"US","ECCENTRICITY":"0.00016020","CENTER_NAME":"EARTH","DECAY_DATE":null,"LAUNCH_DATE":"2020-09-03","ELEMENT_SET_NO":"999","MEAN_MOTION_DOT":"0.00001210","MEAN_ANOMALY":"267.5039","MEAN_MOTION":"15.06407566","NORAD_CAT_ID":"46357","REV_AT_EPOCH":"7024","GP_ID":"191169649","OBJECT_NAME":"STARLINK-1666","ARG_OF_PERICENTER":"92.6133","CLASSIFICATION_TYPE":"U","BSTAR":"0.00010011000000","APOAPSIS":"548.300","PERIAPSIS":"546.081","TIME_SYSTEM":"UTC","TLE_LINE1":"1 46357U 20062AJ  21339.87532560  .00001210  00000-0  10011-3 0  9999","SEMIMAJOR_AXIS":"6925.325","EPHEMERIS_TYPE":"0","OBJECT_TYPE":"PAYLOAD","FILE":"3233515","RA_OF_ASC_NODE":"136.4633","MEAN_MOTION_DDOT":"0.0000000000000","RCS_SIZE":"LARGE","OBJECT_ID":"2020-062AJ","TLE_LINE2":"2 46357  53.0549 136.4633 0001602  92.6133 267.5039 15.06407566 70247","INCLINATION":"53.0549","PERIOD":"95.592"},{"CENTER_NAME":"EARTH","DECAY_DATE":null,"COUNTRY_CODE":"US","ECCENTRICITY":"0.00022070","EPOCH":"2021-12-05T20:31:15.374784","SITE":"AFETR","REF_FRAME":"TEME","MEAN_ELEMENT_THEORY":"SGP4","GP_ID":"191170400","REV_AT_EPOCH":"6996","NORAD_CAT_ID":"46358","MEAN_ANOMALY":"271.6284","MEAN_MOTION":"15.06402690","ELEMENT_SET_NO":"999","MEAN_MOTION_DOT":"0.00000769","LAUNCH_DATE":"2020-09-03","SEMIMAJOR_AXIS":"6925.340","TIME_SYSTEM":"UTC","TLE_LINE1":"1 46358U 20062AK  21339.85503906  .00000769  00000-0  70565-4 0  9999","BSTAR":"0.00007056500000","APOAPSIS":"548.734","PERIAPSIS":"545.677","CLASSIFICATION_TYPE":"U","ARG_OF_PERICENTER":"88.4957","OBJECT_NAME":"STARLINK-1690","PERIOD":"95.592","TLE_LINE2":"2 46358  53.0532 156.5398 0002207  88.4957 271.6284 15.06402690 69968","OBJECT_ID":"2020-062AK","INCLINATION":"53.0532","RCS_SIZE":"LARGE","FILE":"3233515","RA_OF_ASC_NODE":"156.5398","MEAN_MOTION_DDOT":"0.0000000000000","OBJECT_TYPE":"PAYLOAD","EPHEMERIS_TYPE":"0"},{"EPHEMERIS_TYPE":"0","OBJECT_TYPE":"PAYLOAD","FILE":"3233515","RA_OF_ASC_NODE":"112.5286","MEAN_MOTION_DDOT":"0.0000000000000","RCS_SIZE":"LARGE","TLE_LINE2":"2 46359  53.0545 112.5286 0001596  90.7112 269.4060 15.06401759 70559","OBJECT_ID":"2020-062AL","INCLINATION":"53.0545","PERIOD":"95.592","OBJECT_NAME":"STARLINK-1707","ARG_OF_PERICENTER":"90.7112","CLASSIFICATION_TYPE":"U","BSTAR":"0.00010134000000","APOAPSIS":"548.313","PERIAPSIS":"546.103","TIME_SYSTEM":"UTC","TLE_LINE1":"1 46359U 20062AL  21339.63617911  .00001228  00000-0  10134-3 0  9994","SEMIMAJOR_AXIS":"6925.343","LAUNCH_DATE":"2020-09-03","MEAN_MOTION_DOT":"0.00001228","ELEMENT_SET_NO":"999","MEAN_ANOMALY":"269.4060","MEAN_MOTION":"15.06401759","NORAD_CAT_ID":"46359","REV_AT_EPOCH":"7055","GP_ID":"191170651","MEAN_ELEMENT_THEORY":"SGP4","REF_FRAME":"TEME","SITE":"AFETR","EPOCH":"2021-12-05T15:16:05.875104","COUNTRY_CODE":"US","ECCENTRICITY":"0.00015960","CENTER_NAME":"EARTH","DECAY_DATE":null},{"NORAD_CAT_ID":"46360","GP_ID":"191171402","REV_AT_EPOCH":"7059","MEAN_MOTION_DOT":"-0.00000552","ELEMENT_SET_NO":"999","LAUNCH_DATE":"2020-09-03","MEAN_MOTION":"15.06387377","MEAN_ANOMALY":"273.1128","ECCENTRICITY":"0.00014440","COUNTRY_CODE":"US","DECAY_DATE":null,"CENTER_NAME":"EARTH","SITE":"AFETR","MEAN_ELEMENT_THEORY":"SGP4","REF_FRAME":"TEME","EPOCH":"2021-12-05T20:34:34.701312","RCS_SIZE":"LARGE","PERIOD":"95.593","INCLINATION":"53.0544","OBJECT_ID":"2020-062AM","TLE_LINE2":"2 46360  53.0544 111.5394 0001444  87.0026 273.1128 15.06387377 70594","OBJECT_TYPE":"PAYLOAD","EPHEMERIS_TYPE":"0","RA_OF_ASC_NODE":"111.5394","MEAN_MOTION_DDOT":"0.0000000000000","FILE":"3233515","TLE_LINE1":"1 46360U 20062AM  21339.85734608 -.00000552  00000-0 -18194-4 0  9999","TIME_SYSTEM":"UTC","SEMIMAJOR_AXIS":"6925.387","OBJECT_NAME":"STARLINK-1713","APOAPSIS":"548.252","PERIAPSIS":"546.252","BSTAR":"-0.00001819400000","CLASSIFICATION_TYPE":"U","ARG_OF_PERICENTER":"87.0026"},{"SITE":"AFETR","MEAN_ELEMENT_THEORY":"SGP4","REF_FRAME":"TEME","EPOCH":"2021-12-05T21:27:39.192768","COUNTRY_CODE":"US","ECCENTRICITY":"0.00014230","CENTER_NAME":"EARTH","DECAY_DATE":null,"ELEMENT_SET_NO":"999","MEAN_MOTION_DOT":"-0.00000443","LAUNCH_DATE":"2020-09-03","MEAN_ANOMALY":"262.1903","MEAN_MOTION":"15.06397201","NORAD_CAT_ID":"46361","GP_ID":"191170150","REV_AT_EPOCH":"7059","OBJECT_NAME":"STARLINK-1722","BSTAR":"-0.00001083000000","APOAPSIS":"548.208","PERIAPSIS":"546.237","ARG_OF_PERICENTER":"97.9248","CLASSIFICATION_TYPE":"U","TIME_SYSTEM":"UTC","TLE_LINE1":"1 46361U 20062AN  21339.89420362 -.00000443  00000-0 -10830-4 0  9991","SEMIMAJOR_AXIS":"6925.357","OBJECT_TYPE":"PAYLOAD","EPHEMERIS_TYPE":"0","FILE":"3233515","RA_OF_ASC_NODE":"111.3741","MEAN_MOTION_DDOT":"0.0000000000000","RCS_SIZE":"LARGE","PERIOD":"95.592","TLE_LINE2":"2 46361  53.0548 111.3741 0001423  97.9248 262.1903 15.06397201 70592","OBJECT_ID":"2020-062AN","INCLINATION":"53.0548"},{"APOAPSIS":"548.321","PERIAPSIS":"546.190","BSTAR":"0.00000316280000","CLASSIFICATION_TYPE":"U","ARG_OF_PERICENTER":"87.6856","OBJECT_NAME":"STARLINK-1726","SEMIMAJOR_AXIS":"6925.391","TLE_LINE1":"1 46362U 20062AP  21339.80574466 -.00000234  00000-0  31628-5 0  9994","TIME_SYSTEM":"UTC","RA_OF_ASC_NODE":"111.7572","MEAN_MOTION_DDOT":"0.0000000000000","FILE":"3233515","OBJECT_TYPE":"PAYLOAD","EPHEMERIS_TYPE":"0","PERIOD":"95.593","INCLINATION":"53.0535","OBJECT_ID":"2020-062AP","TLE_LINE2":"2 46362  53.0535 111.7572 0001539  87.6856 272.4309 15.06386298 70581","RCS_SIZE":"LARGE","EPOCH":"2021-12-05T19:20:16.338624","SITE":"AFETR","REF_FRAME":"TEME","MEAN_ELEMENT_THEORY":"SGP4","DECAY_DATE":null,"CENTER_NAME":"EARTH","ECCENTRICITY":"0.00015390","COUNTRY_CODE":"US","MEAN_MOTION":"15.06386298","MEAN_ANOMALY":"272.4309","MEAN_MOTION_DOT":"-0.00000234","ELEMENT_SET_NO":"999","LAUNCH_DATE":"2020-09-03","GP_ID":"191169900","REV_AT_EPOCH":"7058","NORAD_CAT_ID":"46362"},{"REV_AT_EPOCH":"7059","GP_ID":"191171152","NORAD_CAT_ID":"46363","MEAN_ANOMALY":"262.4977","MEAN_MOTION":"15.06392553","LAUNCH_DATE":"2020-09-03","MEAN_MOTION_DOT":"-0.00000498","ELEMENT_SET_NO":"999","CENTER_NAME":"EARTH","DECAY_DATE":null,"ECCENTRICITY":"0.00014250","COUNTRY_CODE":"US","EPOCH":"2021-12-05T20:45:11.426112","REF_FRAME":"TEME","MEAN_ELEMENT_THEORY":"SGP4","SITE":"AFETR","OBJECT_ID":"2020-062AQ","TLE_LINE2":"2 46363  53.0540 111.4961 0001425  97.6174 262.4977 15.06392553 70597","INCLINATION":"53.0540","PERIOD":"95.593","RCS_SIZE":"LARGE","FILE":"3233515","RA_OF_ASC_NODE":"111.4961","MEAN_MOTION_DDOT":"0.0000000000000","EPHEMERIS_TYPE":"0","OBJECT_TYPE":"PAYLOAD","SEMIMAJOR_AXIS":"6925.371","TIME_SYSTEM":"UTC","TLE_LINE1":"1 46363U 20062AQ  21339.86471558 -.00000498  00000-0 -14572-4 0  9990","CLASSIFICATION_TYPE":"U","ARG_OF_PERICENTER":"97.6174","BSTAR":"-0.00001457200000","PERIAPSIS":"546.250","APOAPSIS":"548.223","OBJECT_NAME":"STARLINK-1739"}];
